SCD 1                   
1 22490U 93009B   22245.79394927  .00000267  00000+0  23147-4 0  9998
2 22490  24.9699  99.4519 0042721 272.6806 135.2531 14.44712868560750
TECHSAT 1B (GO-32)      
1 25397U 98043D   22245.87290990  .00000021  00000+0  28967-4 0  9997
2 25397  98.8234 196.5668 0000474 185.8281 174.2892 14.23767816254448
SCD 2                   
1 25504U 98060A   22245.64354361  .00000294  00000+0  32167-4 0  9993
2 25504  24.9964 315.5509 0016922 278.0652 214.0485 14.44224756260012
LANDSAT 7               
1 25682U 99020A   22246.50299077  .00000139  00000+0  38376-4 0  9991
2 25682  97.9731 291.6052 0001205 100.3168 259.8174 14.59792093243951
DLR-TUBSAT              
1 25757U 99029B   22246.44188129  .00000051  00000+0  24421-4 0  9990
2 25757  98.4920 189.7847 0013359 238.2798 121.7095 14.51514576232690
TERRA                   
1 25994U 99068A   22246.49365598  .00000171  00000+0  47870-4 0  9994
2 25994  98.1315 316.6038 0001414  82.8538  41.9581 14.57144887207982
MAROC-TUBSAT            
1 27004U 01056D   22246.37840007 -.00000010  00000+0  40457-4 0  9995
2 27004  99.6374  26.7997 0020665  92.0149 323.0999 13.70159811 36805
AQUA                    
1 27424U 02022A   22246.50266105  .00000372  00000+0  92237-4 0  9994
2 27424  98.2506 187.6693 0001583  56.5290  72.1956 14.57368190 81592
IRS-P6 (RESOURCESAT-1)  
1 28051U 03046A   22246.31243940 -.00000630  00000+0 -20569-3 0  9996
2 28051  98.3998 315.1202 0059434 145.3229 215.1831 14.34215360982187
SHIYAN 1 (SY-1)         
1 28220U 04012A   22246.54285878  .00002732  00000+0  21205-3 0  9990
2 28220  97.9804 240.8979 0011895  71.5889 288.6627 15.02201643  1929
AURA                    
1 28376U 04026A   22245.81804869  .00000260  00000+0  67808-4 0  9997
2 28376  98.2124 188.0543 0001560  76.1073 284.0299 14.57126328964494
IRS-P5 (CARTOSAT-1)     
1 28649U 05017A   22246.15273550  .00000506  00000+0  66565-4 0  9998
2 28649  97.7123 304.0198 0001113  30.8278 329.3002 14.84245166938289
SINAH 1                 
1 28893U 05043D   22245.88106898  .00000105  00000+0  30552-4 0  9999
2 28893  98.1206   8.0506 0013918 291.9816  67.9906 14.61737222898260
EROS B                  
1 29079U 06014A   22246.58291758  .00007668  00000+0  30493-3 0  9997
2 29079  97.3914   6.2770 0004646  45.6526  11.3287 15.25556249908285
RESURS-DK 1             
1 29228U 06021A   22245.86857491  .00000405  00000+0  37037-4 0  9997
2 29228  69.9346 291.7024 0007297 289.9559  70.0815 15.03372522894012
ARIRANG-2 (KOMPSAT-2)   
1 29268U 06031A   22246.50064065  .00000201  00000+0  48161-4 0  9995
2 29268  97.9440 112.1502 0015874 126.6995 233.5667 14.62829415859306
LAPAN-TUBSAT            
1 29709U 07001A   22246.44364252  .00000229  00000+0  35153-4 0  9994
2 29709  97.9733 208.8504 0013121   9.0563 351.0893 14.82544633846068
CARTOSAT-2 (IRS-P7)     
1 29710U 07001B   22246.03463976  .00014020  00000+0  33304-3 0  9993
2 29710  97.8702 356.1269 0146688 144.7271 216.3784 15.31275106848108
HAIYANG-1B              
1 31113U 07010A   22246.06079979  .00000001  00000+0  16274-4 0  9994
2 31113  98.3169 267.7827 0013409 348.1238  11.9627 14.30330168803604
COSMO-SKYMED 1          
1 31598U 07023A   22246.44403338 -.00000052  00000+0 -18003-7 0  9990
2 31598  97.8903  68.9878 0001467  89.9026 270.2356 14.82151443824510
TERRASAR-X              
1 31698U 07026A   22246.43886988  .00000092  00000+0  75931-5 0  9992
2 31698  97.4454 252.9331 0001611  75.8164  32.2543 15.19149910843955
WORLDVIEW-1 (WV-1)      
1 32060U 07041A   22245.86642176  .00002810  00000+0  11742-3 0  9996
2 32060  97.3927   4.1987 0005683 205.6162 154.4795 15.24434922832186
YAOGAN 3                
1 32289U 07055A   22246.48104136  .00000386  00000+0  56005-4 0  9990
2 32289  97.9460 267.7598 0001075  96.0042 264.1312 14.81500875800599
COSMO-SKYMED 2          
1 32376U 07059A   22246.47778726  .00000388  00000+0  55346-4 0  9991
2 32376  97.8899  69.0219 0001428  87.8742 272.2678 14.82153618797265
RADARSAT-2              
1 32382U 07061A   22246.51367317 -.00000005  00000+0  15160-4 0  9993
2 32382  98.5781 252.3168 0001177  92.1555  60.8883 14.29983739768456
CARTOSAT-2A             
1 32783U 08021A   22246.44269242  .00000096  00000+0  20148-4 0  9996
2 32783  97.9589 305.8606 0011328 276.6162  83.3753 14.78682936774545
HUANJING 1A (HJ-1A)     
1 33320U 08041A   22246.41774082  .00000194  00000+0  33650-4 0  9997
2 33320  97.6735 275.8043 0020720 342.5505  17.4994 14.77900028753900
HUANJING 1B (HJ-1B)     
1 33321U 08041B   22246.63912338  .00000474  00000+0  72188-4 0  9990
2 33321  97.6898 279.7373 0034310 358.5845   1.5267 14.77844856753930
GEOEYE 1                
1 33331U 08042A   22246.45400189  .00000211  00000+0  48770-4 0  9997
2 33331  98.1069 320.3035 0009534  37.0063 323.1798 14.64563417747781
THEOS                   
1 33396U 08049A   22246.50199374  .00000032  00000+0  35891-4 0  9993
2 33396  98.7425 313.3452 0001120  88.3054 329.3397 14.20007815721749
COSMO-SKYMED 3          
1 33412U 08054A   22246.50768979 -.00001519  00000+0 -14433-3 0  9992
2 33412  97.8904  70.3472 0016583 216.7839 143.2249 14.91869744749811
YAOGAN 4                
1 33446U 08061A   22246.39934741  .00000343  00000+0  55218-4 0  9995
2 33446  97.8195 184.1703 0014860 239.5206 120.4537 14.77446130741103
GOSAT (IBUKI)           
1 33492U 09002A   22246.21231757  .00000377  00000+0  74983-4 0  9997
2 33492  98.1217 358.2265 0001524  85.7490 274.3889 14.67520622729089
YAOGAN 6                
1 34839U 09021A   22246.49769291  .00004010  00000+0  13882-3 0  9991
2 34839  97.0894 223.0584 0026541  22.8462 337.3954 15.30082102743181
DEIMOS-1                
1 35681U 09041A   22246.56467295  .00000139  00000+0  29469-4 0  9993
2 35681  97.7069  93.6028 0001685  30.5021 329.6294 14.72097028703265
DUBAISAT-1              
1 35682U 09041B   22246.41827977  .00000385  00000+0  73114-4 0  9994
2 35682  97.8133  36.2431 0011293 176.0539 184.0804 14.69265103701733
OCEANSAT-2              
1 35931U 09051A   22246.56532909 -.00046185  00000+0 -16616-1 0  9997
2 35931  98.2998 338.5342 0004495 211.2440 148.8413 14.34080599685429
WORLDVIEW-2 (WV-2)      
1 35946U 09055A   22246.50271883  .00000034  00000+0  25842-4 0  9997
2 35946  98.4822 320.6516 0002126 116.5232 243.6174 14.37658716677124
SMOS                    
1 36036U 09059A   22246.14488964  .00000135  00000+0  57009-4 0  9994
2 36036  98.4448  72.5432 0001132  85.4919 274.6399 14.39776638674587
YAOGAN 7                
1 36110U 09069A   22246.54381800 -.00001463  00000+0 -20767-3 0  9990
2 36110  98.1938 107.2461 0025839 154.8265 205.4221 14.75172296685650
TANDEM-X                
1 36605U 10030A   22246.10581852  .00000046  00000+0  53914-5 0  9996
2 36605  97.4434 252.6081 0001711  91.8044 355.9999 15.19153447676652
CARTOSAT-2B             
1 36795U 10035A   22246.34523510  .00000309  00000+0  49205-4 0  9993
2 36795  97.9540 305.8582 0013774 357.9421   2.1743 14.78659109655575
YAOGAN 10               
1 36834U 10038A   22246.28830043  .00000204  00000+0  32954-4 0  9992
2 36834  97.9761 256.7493 0001190  80.6925 279.4426 14.81329442652300
COSMO-SKYMED 4          
1 37216U 10060A   22246.42290710  .00000145  00000+0  24728-4 0  9993
2 37216  97.8898  68.9670 0001429  82.9050 277.2327 14.82160057639806
RESOURCESAT-2           
1 37387U 11015A   22246.46305687  .00000032  00000+0  34471-4 0  9998
2 37387  98.6583 317.5137 0003967 190.4507 169.6600 14.21656431590248
HAIYANG-2A              
1 37781U 11043A   22246.52170159 -.00000017  00000+0  26166-4 0  9994
2 37781  99.3192 251.0251 0001274  53.9023 306.2246 13.78744648556396
RASAT                   
1 37791U 11044D   22246.57343560  .00000177  00000+0  41949-4 0  9991
2 37791  98.0967 338.3562 0020579 242.7786 117.1323 14.65060598590553
MEGHA-TROPIQUES         
1 37838U 11058A   22245.46190102  .00000519  00000+0  86072-4 0  9993
2 37838  19.9756 179.8101 0106955  49.6739 311.2960 14.30418376494689
SRMSAT                  
1 37841U 11058D   22246.06035462  .00000328  00000+0  35236-4 0  9995
2 37841  19.9713 145.8073 0011992 116.9615 272.6992 14.10768118562438
YAOGAN 13               
1 37941U 11072A   22246.53377583  .00003283  00000+0  14752-3 0  9999
2 37941  97.6374 197.7885 0003566 106.1390 344.6962 15.21881111596673
PLEIADES 1A             
1 38012U 11076F   22246.44904764  .00000088  00000+0  28765-4 0  9990
2 38012  98.1961 320.3708 0001553  94.1840 265.9541 14.58542522570443
ZIYUAN 1-02C (ZY 1-02C) 
1 38038U 11079A   22246.43560911  .00000094  00000+0  48107-4 0  9991
2 38038  98.5835 310.6792 0007457  40.8645 319.3099 14.35329761560679
ZIYUAN 3-1 (ZY 3-1)     
1 38046U 12001A   22246.51215634  .00002842  00000+0  13003-3 0  9993
2 38046  97.3349 315.4729 0002655 115.4688   9.2767 15.21321155591473
ARIRANG-3 (KOMPSAT-3)   
1 38338U 12025B   22246.40482751  .00000160  00000+0  41412-4 0  9994
2 38338  98.1830 185.7334 0011694 125.7056 234.5232 14.61904708549362
KANOPUS-V 1             
1 38707U 12039A   22246.53819712  .00003185  00000+0  13977-3 0  9998
2 38707  97.4667 168.1221 0001961  94.2297  19.6708 15.22683326561277
EXACTVIEW-1 (ADS-1B)    
1 38709U 12039C   22246.19245444  .00000024  00000+0  30578-4 0  9993
2 38709  99.0035 314.5855 0010853 189.8109 170.2858 14.24116453525801
SPOT 6                  
1 38755U 12047A   22246.39513372  .00000077  00000+0  26429-4 0  9991
2 38755  98.2290 312.2865 0001057  93.4615 266.6706 14.58544750531519
PLEIADES 1B             
1 39019U 12068A   22246.41454422  .00000084  00000+0  27978-4 0  9999
2 39019  98.1918 320.2832 0001412  86.8526 273.2839 14.58563899519291
GOKTURK 2               
1 39030U 12073A   22246.42644415  .00000152  00000+0  31144-4 0  9998
2 39030  97.8432 122.8548 0002363  88.0738 272.0732 14.72907832520832
LANDSAT 8               
1 39084U 13008A   22246.50205538 -.00000029  00000+0  36374-5 0  9999
2 39084  98.2170 315.8136 0001402  96.4574 263.6784 14.57099250508362
